NORAD_CAT_ID,OBJECT_NAME,OBJECT_TYPE,EPOCH,MEAN_MOTION,ECCENTRICITY,INCLINATION,RA_OF_ASC_NODE,ARG_OF_PERICENTER,MEAN_ANOMALY,BSTAR,MEAN_MOTION_DOT,MEAN_MOTION_DDOT,TLE_LINE0,TLE_LINE1,TLE_LINE2,SEMIMAJOR_AXIS,PERIOD,APOGEE,PERIGEE,DECAYED
53538.0,STARLINK-4118,PAYLOAD,2024-06-05 18:35:02,15.08839881,0.0001932,53.2171,65.7881,80.6912,279.4299,5.1958e-05,5.39e-06,0.0,0 STARLINK-4118,1 53538U 22101M   24157.77433349  .00000539  00000-0  51958-4 0  9998,2 53538  53.2171  65.7881 0001932  80.6912 279.4299 15.08839881100083,6917.881,95.438,541.082,538.409,0.0
53538.0,STARLINK-4118,PAYLOAD,2024-06-06 00:56:35,15.08835588,0.0001841,53.2176,64.5974,86.4427,273.6776,7.358e-05,8.83e-06,0.0,0 STARLINK-4118,1 53538U 22101M   24158.03929584  .00000883  00000-0  73580-4 0  9996,2 53538  53.2176  64.5974 0001841  86.4427 273.6776 15.08835588 99434,6917.894,95.438,541.032,538.485,0.0
53538.0,STARLINK-4118,PAYLOAD,2024-06-06 10:28:52,15.08851109,0.0001049,53.2186,62.8132,82.1942,277.9169,0.00020045,2.905e-05,0.0,0 STARLINK-4118,1 53538U 22101M   24158.43672190  .00002905  00000-0  20045-3 0  9992,2 53538  53.2186  62.8132 0001049  82.1942 277.9169 15.08851109 99493,6917.846,95.437,540.437,538.986,0.0
53538.0,STARLINK-4118,PAYLOAD,2024-06-07 16:41:13,15.0885179,0.0002797,53.2165,57.1695,82.1176,278.0133,0.00012566,1.713e-05,0.0,0 STARLINK-4118,1 53538U 22101M   24159.69529253  .00001713  00000-0  12566-3 0  9997,2 53538  53.2165  57.1695 0002797  82.1176 278.0133 15.08851790 99681,6917.844,95.437,541.644,537.774,0.0
53538.0,STARLINK-4118,PAYLOAD,2024-06-08 02:13:32,15.08846462,0.0001111,53.2179,55.381,87.5223,272.5897,0.00015328,2.153e-05,0.0,0 STARLINK-4118,1 53538U 22101M   24160.09273179  .00002153  00000-0  15328-3 0  9994,2 53538  53.2179  55.3810 0001111  87.5223 272.5897 15.08846462 99749,6917.861,95.437,540.494,538.957,0.0
53538.0,STARLINK-4118,PAYLOAD,2024-06-08 10:10:27,15.08854115,0.0001109,53.2174,53.8942,85.0944,275.0175,0.00012084,1.637e-05,0.0,0 STARLINK-4118,1 53538U 22101M   24160.42392536  .00001637  00000-0  12084-3 0  9992,2 53538  53.2174  53.8942 0001109  85.0944 275.0175 15.08854115100488,6917.837,95.437,540.469,538.935,0.0
53538.0,STARLINK-4118,PAYLOAD,2024-06-08 22:53:33,15.08823216,9.94e-05,53.2173,51.5165,93.3029,266.8076,-0.00013239,-2.393e-05,0.0,0 STARLINK-4118,1 53538U 22101M   24160.95386469 -.00002393  00000-0 -13239-3 0  9993,2 53538  53.2173  51.5165 0000994  93.3029 266.8076 15.08823216100561,6917.932,95.439,540.484,539.109,0.0
53538.0,STARLINK-4118,PAYLOAD,2024-06-09 00:28:56,15.0883571,0.0001571,53.2188,51.2209,84.1145,276.0026,-0.00015599,-2.769e-05,0.0,0 STARLINK-4118,1 53538U 22101M   24161.02010022 -.00002769  00000-0 -15599-3 0  9999,2 53538  53.2188  51.2209 0001571  84.1145 276.0026 15.08835710 99884,6917.894,95.438,540.845,538.672,0.0
53538.0,STARLINK-4118,PAYLOAD,2024-06-09 22:44:20,15.08838907,0.0001368,53.2181,47.0575,87.7406,272.3743,0.00015629,2.2e-05,0.0,0 STARLINK-4118,1 53538U 22101M   24161.94746135  .00002200  00000-0  15629-3 0  9993,2 53538  53.2181  47.0575 0001368  87.7406 272.3743 15.08838907100710,6917.884,95.438,540.695,538.802,0.0
53538.0,STARLINK-4118,PAYLOAD,2024-06-10 09:52:02,15.08848044,0.0001267,53.2181,44.9738,93.0463,267.0674,0.0001642,2.327e-05,0.0,0 STARLINK-4118,1 53538U 22101M   24162.41113618  .00002327  00000-0  16420-3 0  9990,2 53538  53.2181  44.9738 0001267  93.0463 267.0674 15.08848044100096,6917.856,95.437,540.597,538.844,0.0
53538.0,STARLINK-4118,PAYLOAD,2024-06-10 20:59:44,15.08835346,0.0001463,53.2189,42.8927,102.1433,257.9723,0.00017517,2.501e-05,0.0,0 STARLINK-4118,1 53538U 22101M   24162.87482469  .00002501  00000-0  17517-3 0  9995,2 53538  53.2189  42.8927 0001463 102.1433 257.9723 15.08835346100160,6917.895,95.438,540.772,538.748,0.0
53538.0,STARLINK-4118,PAYLOAD,2024-06-10 22:35:08,15.0883594,0.0001336,53.2185,42.5956,93.5437,266.5708,0.00019039,2.743e-05,0.0,0 STARLINK-4118,1 53538U 22101M   24162.94106492  .00002743  00000-0  19039-3 0  9991,2 53538  53.2185  42.5956 0001336  93.5437 266.5708 15.08835940100867,6917.893,95.438,540.682,538.834,0.0
53538.0,STARLINK-4118,PAYLOAD,2024-06-11 01:45:54,15.0884089,0.0001426,53.2177,42.0006,94.3493,265.7662,0.00018099,2.594e-05,0.0,0 STARLINK-4118,1 53538U 22101M   24163.07354280  .00002594  00000-0  18099-3 0  9995,2 53538  53.2177  42.0006 0001426  94.3493 265.7662 15.08840890100882,6917.878,95.437,540.729,538.756,0.0
53538.0,STARLINK-4118,PAYLOAD,2024-06-12 01:36:41,15.08839838,0.0001395,53.2183,37.5392,93.8531,266.2621,7.443e-05,8.97e-06,0.0,0 STARLINK-4118,1 53538U 22101M   24164.06714413  .00000897  00000-0  74430-4 0  9999,2 53538  53.2183  37.5392 0001395  93.8531 266.2621 15.08839838100340,6917.881,95.438,540.711,538.781,0.0
53538.0,STARLINK-4118,PAYLOAD,2024-06-12 20:41:19,15.08838879,0.0001407,53.2182,33.9707,91.5671,268.5482,0.00014597,2.036e-05,0.0,0 STARLINK-4118,1 53538U 22101M   24164.86202566  .00002036  00000-0  14597-3 0  9992,2 53538  53.2182  33.9707 0001407  91.5671 268.5482 15.08838879101157,6917.884,95.438,540.722,538.775,0.0
53538.0,STARLINK-4118,PAYLOAD,2024-06-13 07:49:00,15.08849037,0.0001278,53.2176,31.8892,84.6967,275.4171,0.00018407,2.643e-05,0.0,0 STARLINK-4118,1 53538U 22101M   24165.32569915  .00002643  00000-0  18407-3 0  9996,2 53538  53.2176  31.8892 0001278  84.6967 275.4171 15.08849037100530,6917.853,95.437,540.602,538.834,0.0
53538.0,STARLINK-4118,PAYLOAD,2024-06-13 20:32:06,15.08836751,0.0001846,53.2196,29.5218,123.5038,236.6131,5.355e-05,5.64e-06,0.0,0 STARLINK-4118,1 53538U 22101M   24165.85562618  .00000564  00000-0  53550-4 0  9996,2 53538  53.2196  29.5218 0001846 123.5038 236.6131 15.08836751101301,6917.89,95.438,541.032,538.478,0.0
53538.0,STARLINK-4118,PAYLOAD,2024-06-13 22:07:29,15.08834075,0.0001773,53.2199,29.2216,116.1929,243.9246,2.4228e-05,9.7e-07,0.0,0 STARLINK-4118,1 53538U 22101M   24165.92186797  .00000097  00000-0  24228-4 0  9995,2 53538  53.2199  29.2216 0001773 116.1929 243.9246 15.08834075101311,6917.898,95.438,540.99,538.537,0.0
53538.0,STARLINK-4118,PAYLOAD,2024-06-14 21:58:16,15.08841992,0.0001453,53.2193,24.7586,113.4332,246.6813,0.00012218,1.657e-05,0.0,0 STARLINK-4118,1 53538U 22101M   24166.91546686  .00001657  00000-0  12218-3 0  9990,2 53538  53.2193  24.7586 0001453 113.4332 246.6813 15.08841992101460,6917.874,95.437,540.744,538.734,0.0
53538.0,STARLINK-4118,PAYLOAD,2024-06-15 07:30:33,15.08870042,0.0001174,53.2186,22.9733,87.546,272.5666,-0.00030506,-5.144e-05,0.0,0 STARLINK-4118,1 53538U 22101M   24167.31288719 -.00005144  00000-0 -30506-3 0  9992,2 53538  53.2186  22.9733 0001174  87.5460 272.5666 15.08870042101528,6917.789,95.436,540.466,538.841,0.0
53538.0,STARLINK-4118,PAYLOAD,2024-06-15 21:49:03,15.08839696,0.0001372,53.2178,20.2965,86.3488,273.7661,0.00010799,1.431e-05,0.0,0 STARLINK-4118,1 53538U 22101M   24167.90906835  .00001431  00000-0  10799-3 0  9998,2 53538  53.2178  20.2965 0001372  86.3488 273.7661 15.08839696101612,6917.881,95.438,540.695,538.797,0.0
53538.0,STARLINK-4118,PAYLOAD,2024-06-16 07:21:21,15.08850259,0.0001332,53.2173,18.5121,86.388,273.7265,0.00029088,4.346e-05,0.0,0 STARLINK-4118,1 53538U 22101M   24168.30650321  .00004346  00000-0  29088-3 0  9998,2 53538  53.2173  18.5121 0001332  86.3880 273.7265 15.08850259101677,6917.849,95.437,540.635,538.793,0.0
53538.0,STARLINK-4118,PAYLOAD,2024-06-16 21:39:50,15.08841502,0.0001213,53.2173,15.8322,99.1289,260.984,6.7119e-05,7.81e-06,0.0,0 STARLINK-4118,1 53538U 22101M   24168.90266720  .00000781  00000-0  67119-4 0  9997,2 53538  53.2173  15.8322 0001213  99.1289 260.9840 15.08841502101761,6917.876,95.437,540.58,538.902,0.0
53538.0,STARLINK-4118,PAYLOAD,2024-06-17 19:55:14,15.08845651,0.0001311,53.2176,11.6707,92.502,267.6122,0.00022892,3.358e-05,0.0,0 STARLINK-4118,1 53538U 22101M   24169.83002716  .00003358  00000-0  22892-3 0  9994,2 53538  53.2176  11.6707 0001311  92.5020 267.6122 15.08845651101906,6917.863,95.437,540.635,538.821,0.0
53538.0,STARLINK-4118,PAYLOAD,2024-06-17 23:06:00,15.08847578,0.0001322,53.2184,11.0751,92.1616,267.9528,0.00026145,3.876e-05,0.0,0 STARLINK-4118,1 53538U 22101M   24169.96250640  .00003876  00000-0  26145-3 0  9999,2 53538  53.2184  11.0751 0001322  92.1616 267.9528 15.08847578101236,6917.857,95.437,540.637,538.808,0.0
53538.0,STARLINK-4118,PAYLOAD,2024-06-18 19:46:01,15.08845019,0.0001255,53.2172,7.2099,90.9582,269.1554,0.0001564,2.202e-05,0.0,0 STARLINK-4118,1 53538U 22101M   24170.82362622  .00002202  00000-0  15640-3 0  9990,2 53538  53.2172   7.2099 0001255  90.9582 269.1554 15.08845019101363,6917.865,95.437,540.598,538.862,0.0
53538.0,STARLINK-4118,PAYLOAD,2024-06-18 22:56:47,15.08846573,0.0001244,53.2173,6.6149,91.9491,268.1643,0.00016076,2.272e-05,0.0,0 STARLINK-4118,1 53538U 22101M   24170.95610504  .00002272  00000-0  16076-3 0  9990,2 53538  53.2173   6.6149 0001244  91.9491 268.1643 15.08846573102074,6917.86,95.437,540.586,538.865,0.0
53538.0,STARLINK-4118,PAYLOAD,2024-06-19 19:36:48,15.08836555,0.0001334,53.2175,2.748,95.0087,265.1057,9.5309e-07,-2.73e-06,0.0,0 STARLINK-4118,1 53538U 22101M   24171.81722899 -.00000273  00000-0  95309-6 0  9996,2 53538  53.2175   2.7480 0001334  95.0087 265.1057 15.08836555101510,6917.891,95.438,540.679,538.833,0.0
53538.0,STARLINK-4118,PAYLOAD,2024-06-20 13:06:02,15.0884406,0.0002397,53.2188,359.4768,85.7157,274.4109,0.00010908,1.448e-05,0.0,0 STARLINK-4118,1 53538U 22101M   24172.54586721  .00001448  00000-0  10908-3 0  9992,2 53538  53.2188 359.4768 0002397  85.7157 274.4109 15.08844060102319,6917.868,95.437,541.391,538.075,0.0
53538.0,STARLINK-4118,PAYLOAD,2024-06-20 19:27:36,15.08833365,0.000143,53.2193,358.2946,107.9376,252.1772,-1.9468e-05,-5.98e-06,0.0,0 STARLINK-4118,1 53538U 22101M   24172.81083622 -.00000598  00000-0 -19468-4 0  9992,2 53538  53.2193 358.2946 0001430 107.9376 252.1772 15.08833365102356,6917.901,95.438,540.755,538.776,0.0
